OBJECT_NAME,OBJECT_ID,EPOCH,MEAN_MOTION,ECCENTRICITY,INCLINATION,RA_OF_ASC_NODE,ARG_OF_PERICENTER,MEAN_ANOMALY,EPHEMERIS_TYPE,CLASSIFICATION_TYPE,NORAD_CAT_ID,ELEMENT_SET_NO,REV_AT_EPOCH,BSTAR,MEAN_MOTION_DOT,MEAN_MOTION_DDOT
STARLINK-37940,2026-145P,2026-07-05T04:00:03.000096,15.75132088,.00023831,97.2861,32.5482,126.3233,118.7987,0,U,69690,999,282,.13167517E-3,.19508E-3,0
STARLINK-37961,2026-145Q,2026-07-05T04:00:03.000096,15.75200183,.00015992,97.2854,32.5543,115.8292,147.3239,0,U,69691,999,282,-.81562097E-3,-.120148E-2,0
STARLINK-37787,2026-145R,2026-07-05T04:00:03.000096,15.75262859,.00007222,97.2855,32.5595,91.3527,183.7097,0,U,69692,999,282,-.45293893E-3,-.67366E-3,0
STARLINK-37962,2026-145S,2026-07-05T04:00:03.000096,15.75460992,.00019315,97.2854,32.5639,96.9479,188.0397,0,U,69693,999,282,-.2984259E-2,-.428746E-2,0
STARLINK-37953,2026-145T,2026-07-05T04:00:03.000096,15.75125602,.00017141,97.2856,32.5578,123.5046,145.6316,0,U,69694,999,282,-.13008168E-3,-.19435E-3,0
STARLINK-37926,2026-145U,2026-07-05T04:00:03.000096,15.75141837,.00014968,97.2856,32.5599,111.7365,161.3967,0,U,69695,999,282,-.7855554E-4,-.11806E-3,0
STARLINK-37959,2026-145V,2026-07-05T04:00:03.000096,15.75263489,.00015832,97.2854,32.5611,98.2706,180.8101,0,U,69696,999,282,-.85924431E-3,-.126816E-2,0
STARLINK-37976,2026-145W,2026-07-05T04:00:03.000096,15.75215109,.00009072,97.2857,32.5681,112.1484,182.9234,0,U,69697,999,282,-.257752E-5,-.514E-5,0
STARLINK-37912,2026-145X,2026-07-05T04:00:03.000096,15.75224694,.00013843,97.2854,32.5710,102.9177,198.1946,0,U,69698,999,282,-.54569087E-3,-.80879E-3,0
STARLINK-37974,2026-145Y,2026-07-05T04:00:03.000096,15.75217693,.00011731,97.2853,32.5725,100.8329,204.2732,0,U,69699,999,282,-.24892915E-3,-.37142E-3,0
STARLINK-37955,2026-145Z,2026-07-05T04:00:03.000096,15.75252563,.00008251,97.2855,32.5793,56.6849,262.3678,0,U,69700,999,282,-.32919339E-3,-.4908E-3,0
STRIX-8,2026-146A,2026-07-05T03:03:30.911040,15.04372169,.00087669,41.9893,68.8620,318.4582,41.5578,0,U,69701,999,126,.58111172E-3,.8072E-4,0
ELECTRON R/B,2026-146B,2026-07-05T01:27:04.336704,15.67368472,.01958435,42.0782,64.7338,309.3295,49.0340,0,U,69702,999,131,.13701219E-2,.469707E-2,.71837856E-4
ELECTRON KICK STAGE R/B,2026-146C,2026-07-05T02:59:20.430528,15.04888421,.00105289,41.9876,68.8371,319.0072,40.9963,0,U,69703,999,126,.51501583E-3,.7234E-4,0
STARLINK-38055,2026-147A,2026-07-05T04:00:03.000096,15.83261312,.0001094,97.2828,221.9704,59.3621,293.5190,0,U,69704,999,213,-.1324808E-1,-.2451244E-1,0
STARLINK-37898,2026-147B,2026-07-05T04:00:03.000096,15.83749569,.0001239,97.2828,221.9720,62.2271,294.2105,0,U,69705,999,213,-.11827743E-1,-.2215957E-1,0
STARLINK-37970,2026-147C,2026-07-05T04:00:03.000096,15.84065573,.00011384,97.2830,221.9739,60.6929,299.2815,0,U,69706,999,213,-.11608311E-1,-.2209136E-1,0
STARLINK-37975,2026-147D,2026-07-05T04:00:03.000096,15.84360575,.00011227,97.2830,221.9752,71.4501,292.0150,0,U,69707,999,213,-.11320767E-1,-.218885E-1,0
STARLINK-37972,2026-147E,2026-07-05T04:00:03.000096,15.84646410,.00011811,97.2828,221.9770,53.8058,313.1067,0,U,69708,999,213,-.11091123E-1,-.2176508E-1,0
STARLINK-37963,2026-147F,2026-07-05T04:00:03.000096,15.84929658,.00013322,97.2828,221.9783,51.1327,319.1509,0,U,69709,999,213,-.10836977E-1,-.2159237E-1,0
STARLINK-37969,2026-147G,2026-07-05T04:00:03.000096,15.85201002,.0001146,97.2831,221.9800,62.5125,311.1167,0,U,69710,999,228,-.10621009E-1,-.2146212E-1,0
STARLINK-37956,2026-147H,2026-07-05T04:00:03.000096,15.85500539,.00014009,97.2831,221.9814,53.7689,322.9643,0,U,69711,999,213,-.10285482E-1,-.211464E-1,0
STARLINK-38043,2026-147J,2026-07-05T04:00:03.000096,15.85765922,.00010636,97.2830,221.9823,53.5106,326.4462,0,U,69712,999,213,-.10123803E-1,-.2108959E-1,0
STARLINK-38020,2026-147K,2026-07-05T04:00:03.000096,15.86019798,.00011235,97.2830,221.9840,61.2429,321.9290,0,U,69713,999,213,-.99792438E-2,-.2105467E-1,0
STARLINK-38059,2026-147L,2026-07-05T04:00:03.000096,15.86279352,.00012272,97.2831,221.9851,53.5374,332.6867,0,U,69714,999,213,-.97147995E-2,-.2080208E-1,0
STARLINK-38061,2026-147M,2026-07-05T04:00:03.000096,15.86526092,.00011723,97.2831,221.9865,51.2824,338.0011,0,U,69715,999,222,-.95103461E-2,-.2063833E-1,0
STARLINK-38060,2026-147N,2026-07-05T04:00:03.000096,15.86769892,.00011572,97.2833,221.9876,56.2453,336.0057,0,U,69716,999,222,-.92548929E-2,-.2036899E-1,0
STARLINK-38040,2026-147P,2026-07-05T04:00:03.000096,15.87020365,.00012643,97.2834,221.9891,58.9635,336.1550,0,U,69717,999,222,-.90170493E-2,-.2013077E-1,0
STARLINK-37989,2026-147Q,2026-07-05T04:00:03.000096,15.87253989,.00013824,97.2834,221.9901,56.0350,342.0800,0,U,69718,999,222,-.89187105E-2,-.2014244E-1,0
STARLINK-38039,2026-147R,2026-07-05T04:00:03.000096,15.87485400,.00012115,97.2834,221.9914,57.9663,343.0038,0,U,69719,999,222,-.87254445E-2,-.1995912E-1,0
