STARLINK-37940          
1 69690U 26145P   26186.16670139  .00019508  00000+0  13168-3 0  9998
2 69690  97.2861  32.5482 0002383 126.3233 118.7987 15.75132088  2828
STARLINK-37961          
1 69691U 26145Q   26186.16670139 -.00120148  00000+0 -81562-3 0  9997
2 69691  97.2854  32.5543 0001599 115.8292 147.3239 15.75200183  2825
STARLINK-37787          
1 69692U 26145R   26186.16670139 -.00067366  00000+0 -45294-3 0  9992
2 69692  97.2855  32.5595 0000722  91.3527 183.7097 15.75262859  2824
STARLINK-37962          
1 69693U 26145S   26186.16670139 -.00428746  00000+0 -29843-2 0  9997
2 69693  97.2854  32.5639 0001931  96.9479 188.0397 15.75460992  2822
STARLINK-37953          
1 69694U 26145T   26186.16670139 -.00019435  00000+0 -13008-3 0  9996
2 69694  97.2856  32.5578 0001714 123.5046 145.6316 15.75125602  2829
STARLINK-37926          
1 69695U 26145U   26186.16670139 -.00011806  00000+0 -78556-4 0  9991
2 69695  97.2856  32.5599 0001496 111.7365 161.3967 15.75141837  2828
STARLINK-37959          
1 69696U 26145V   26186.16670139 -.00126816  00000+0 -85924-3 0  9996
2 69696  97.2854  32.5611 0001583  98.2706 180.8101 15.75263489  2821
STARLINK-37976          
1 69697U 26145W   26186.16670139 -.00000514  00000+0 -25775-5 0  9993
2 69697  97.2857  32.5681 0000907 112.1484 182.9234 15.75215109  2826
STARLINK-37912          
1 69698U 26145X   26186.16670139 -.00080879  00000+0 -54569-3 0  9997
2 69698  97.2854  32.5710 0001384 102.9177 198.1946 15.75224694  2821
STARLINK-37974          
1 69699U 26145Y   26186.16670139 -.00037142  00000+0 -24893-3 0  9990
2 69699  97.2853  32.5725 0001173 100.8329 204.2732 15.75217693  2822
STARLINK-37955          
1 69700U 26145Z   26186.16670139 -.00049080  00000+0 -32919-3 0  9995
2 69700  97.2855  32.5793 0000825  56.6849 262.3678 15.75252563  2829
STRIX-8                 
1 69701U 26146A   26186.12744110  .00008072  00000+0  58111-3 0  9990
2 69701  41.9893  68.8620 0008766 318.4582  41.5578 15.04372169  1264
ELECTRON R/B            
1 69702U 26146B   26186.06046686  .00469707  71838-4  13701-2 0  9990
2 69702  42.0782  64.7338 0195843 309.3295  49.0340 15.67368472  1315
ELECTRON KICK STAGE R/B 
1 69703U 26146C   26186.12454202  .00007234  00000+0  51502-3 0  9998
2 69703  41.9876  68.8371 0010528 319.0072  40.9963 15.04888421  1264
STARLINK-38055          
1 69704U 26147A   26186.16670139 -.02451244  00000+0 -13248-1 0  9994
2 69704  97.2828 221.9704 0001094  59.3621 293.5190 15.83261312  2136
STARLINK-37898          
1 69705U 26147B   26186.16670139 -.02215957  00000+0 -11828-1 0  9996
2 69705  97.2828 221.9720 0001239  62.2271 294.2105 15.83749569  2139
STARLINK-37970          
1 69706U 26147C   26186.16670139 -.02209136  00000+0 -11608-1 0  9995
2 69706  97.2830 221.9739 0001138  60.6929 299.2815 15.84065573  2133
STARLINK-37975          
1 69707U 26147D   26186.16670139 -.02188850  00000+0 -11321-1 0  9997
2 69707  97.2830 221.9752 0001122  71.4501 292.0150 15.84360575  2131
STARLINK-37972          
1 69708U 26147E   26186.16670139 -.02176508  00000+0 -11091-1 0  9999
2 69708  97.2828 221.9770 0001181  53.8058 313.1067 15.84646410  2132
STARLINK-37963          
1 69709U 26147F   26186.16670139 -.02159237  00000+0 -10837-1 0  9997
2 69709  97.2828 221.9783 0001332  51.1327 319.1509 15.84929658  2130
STARLINK-37969          
1 69710U 26147G   26186.16670139 -.02146212  00000+0 -10621-1 0  9999
2 69710  97.2831 221.9800 0001146  62.5125 311.1167 15.85201002  2286
STARLINK-37956          
1 69711U 26147H   26186.16670139 -.02114640  00000+0 -10285-1 0  9996
2 69711  97.2831 221.9814 0001400  53.7689 322.9643 15.85500539  2132
STARLINK-38043          
1 69712U 26147J   26186.16670139 -.02108959  00000+0 -10124-1 0  9995
2 69712  97.2830 221.9823 0001063  53.5106 326.4462 15.85765922  2136
STARLINK-38020          
1 69713U 26147K   26186.16670139 -.02105467  00000+0 -99792-2 0  9996
2 69713  97.2830 221.9840 0001123  61.2429 321.9290 15.86019798  2130
STARLINK-38059          
1 69714U 26147L   26186.16670139 -.02080208  00000+0 -97148-2 0  9995
2 69714  97.2831 221.9851 0001227  53.5374 332.6867 15.86279352  2135
STARLINK-38061          
1 69715U 26147M   26186.16670139 -.02063833  00000+0 -95103-2 0  9990
2 69715  97.2831 221.9865 0001172  51.2824 338.0011 15.86526092  2222
STARLINK-38060          
1 69716U 26147N   26186.16670139 -.02036899  00000+0 -92549-2 0  9994
2 69716  97.2833 221.9876 0001157  56.2453 336.0057 15.86769892  2228
STARLINK-38040          
1 69717U 26147P   26186.16670139 -.02013077  00000+0 -90170-2 0  9996
2 69717  97.2834 221.9891 0001264  58.9635 336.1550 15.87020365  2222
STARLINK-37989          
1 69718U 26147Q   26186.16670139 -.02014244  00000+0 -89187-2 0  9990
2 69718  97.2834 221.9901 0001382  56.0350 342.0800 15.87253989  2223
STARLINK-38039          
1 69719U 26147R   26186.16670139 -.01995912  00000+0 -87254-2 0  9993
2 69719  97.2834 221.9914 0001211  57.9663 343.0038 15.87485400  2225
